UNKNOWN                 
1 82162U          26014.24542589  .00003275  00000+0  48869-2 0  9994
2 82162 100.4753 305.6059 0042343 147.2397 213.1375 13.53844444508700
UNKNOWN                 
1 82180U          26011.92126082  .00017527  00000+0  22682-2 0  9992
2 82180  65.6513 202.9916 0311957 201.7533 157.0080 14.52315544606134
UNKNOWN                 
1 82189U          26011.20045993  .00000369  00000+0  13775-3 0  9993
2 82189  74.0348 354.2937 0016529 183.4902 176.6138 14.35236453636642
UNKNOWN                 
1 82199U          26013.32959806  .00000500  00000+0  42090-3 0  9995
2 82199  82.9651 210.1324 0037091 307.2065 232.0230 13.85815953614065
UNKNOWN                 
1 82205U          26013.39051843  .00001784  00000+0  52370-3 0  9991
2 82205  63.0097 155.5121 0494757 296.2621  58.8386 13.93500534612413
UNKNOWN                 
1 82223U          25363.91996862  .00003934  00000+0  21293-2 0  9993
2 82223  99.3201 250.5449 0069125 298.6502  60.7728 14.11928216451215
UNKNOWN                 
1 82250U          26013.00016537  .00002346  00000+0  12269-2 0  9997
2 82250  98.9075 283.3550 0071374 101.2023 278.0081 14.14034356621055
UNKNOWN                 
1 82272U          26013.65686052 -.00000158  00000+0 -35377-3 0  9994
2 82272  67.5241 142.9326 0752087  85.8010 282.8502 12.33577246275872
UNKNOWN                 
1 82303U          26013.67337375  .00017850  00000+0  14676-1 0  9994
2 82303  81.9230 335.6080 0041841 290.6876 248.1070 13.88697297518851
UNKNOWN                 
1 82311U          26014.10956661  .00000525  00000+0  79684-3 0  9990
2 82311  99.4317  71.4715 0111191 225.4044 133.7980 13.54594529554709
UNKNOWN                 
1 82363U          26012.70041601  .00000523  00000+0  91674-3 0  9991
2 82363  66.9366 127.6667 0453818 145.9782 217.1260 13.15643367294339
UNKNOWN                 
1 82369U          26012.80389361  .00000051  00000+0  64170-4 0  9994
2 82369  98.8977  31.9356 0082761 252.6700 106.5399 13.98187235561519
