CCSDS_OMM_VERS = 2.0
CREATION_DATE  = 
ORIGINATOR     = 

OBJECT_NAME    = UNKNOWN
OBJECT_ID      = 
CENTER_NAME    = EARTH
REF_FRAME      = TEME
TIME_SYSTEM    = UTC
MEAN_ELEMENT_THEORY = SGP/SGP4

EPOCH          = 2026-01-14T05:53:24.796896
MEAN_MOTION    = 13.53844444
ECCENTRICITY   = .0042343
INCLINATION    = 100.4753
RA_OF_ASC_NODE = 305.6059
ARG_OF_PERICENTER = 147.2397
MEAN_ANOMALY   = 213.1375

EPHEMERIS_TYPE = 0
CLASSIFICATION_TYPE = U
NORAD_CAT_ID   = 82162
ELEMENT_SET_NO = 999
REV_AT_EPOCH   = 50870
BSTAR          = .48869E-2
MEAN_MOTION_DOT = .3275E-4
MEAN_MOTION_DDOT = 0

CCSDS_OMM_VERS = 2.0
CREATION_DATE  = 
ORIGINATOR     = 

OBJECT_NAME    = UNKNOWN
OBJECT_ID      = 
CENTER_NAME    = EARTH
REF_FRAME      = TEME
TIME_SYSTEM    = UTC
MEAN_ELEMENT_THEORY = SGP/SGP4

EPOCH          = 2026-01-11T22:06:36.934848
MEAN_MOTION    = 14.52315544
ECCENTRICITY   = .0311957
INCLINATION    = 65.6513
RA_OF_ASC_NODE = 202.9916
ARG_OF_PERICENTER = 201.7533
MEAN_ANOMALY   = 157.0080

EPHEMERIS_TYPE = 0
CLASSIFICATION_TYPE = U
NORAD_CAT_ID   = 82180
ELEMENT_SET_NO = 999
REV_AT_EPOCH   = 60613
BSTAR          = .22682E-2
MEAN_MOTION_DOT = .17527E-3
MEAN_MOTION_DDOT = 0

CCSDS_OMM_VERS = 2.0
CREATION_DATE  = 
ORIGINATOR     = 

OBJECT_NAME    = UNKNOWN
OBJECT_ID      = 
CENTER_NAME    = EARTH
REF_FRAME      = TEME
TIME_SYSTEM    = UTC
MEAN_ELEMENT_THEORY = SGP/SGP4

EPOCH          = 2026-01-11T04:48:39.737952
MEAN_MOTION    = 14.35236453
ECCENTRICITY   = .0016529
INCLINATION    = 74.0348
RA_OF_ASC_NODE = 354.2937
ARG_OF_PERICENTER = 183.4902
MEAN_ANOMALY   = 176.6138

EPHEMERIS_TYPE = 0
CLASSIFICATION_TYPE = U
NORAD_CAT_ID   = 82189
ELEMENT_SET_NO = 999
REV_AT_EPOCH   = 63664
BSTAR          = .13775E-3
MEAN_MOTION_DOT = .369E-5
MEAN_MOTION_DDOT = 0

CCSDS_OMM_VERS = 2.0
CREATION_DATE  = 
ORIGINATOR     = 

OBJECT_NAME    = UNKNOWN
OBJECT_ID      = 
CENTER_NAME    = EARTH
REF_FRAME      = TEME
TIME_SYSTEM    = UTC
MEAN_ELEMENT_THEORY = SGP/SGP4

EPOCH          = 2026-01-13T07:54:37.272384
MEAN_MOTION    = 13.85815953
ECCENTRICITY   = .0037091
INCLINATION    = 82.9651
RA_OF_ASC_NODE = 210.1324
ARG_OF_PERICENTER = 307.2065
MEAN_ANOMALY   = 232.0230

EPHEMERIS_TYPE = 0
CLASSIFICATION_TYPE = U
NORAD_CAT_ID   = 82199
ELEMENT_SET_NO = 999
REV_AT_EPOCH   = 61406
BSTAR          = .4209E-3
MEAN_MOTION_DOT = .5E-5
MEAN_MOTION_DDOT = 0

CCSDS_OMM_VERS = 2.0
CREATION_DATE  = 
ORIGINATOR     = 

OBJECT_NAME    = UNKNOWN
OBJECT_ID      = 
CENTER_NAME    = EARTH
REF_FRAME      = TEME
TIME_SYSTEM    = UTC
MEAN_ELEMENT_THEORY = SGP/SGP4

EPOCH          = 2026-01-13T09:22:20.792352
MEAN_MOTION    = 13.93500534
ECCENTRICITY   = .0494757
INCLINATION    = 63.0097
RA_OF_ASC_NODE = 155.5121
ARG_OF_PERICENTER = 296.2621
MEAN_ANOMALY   = 58.8386

EPHEMERIS_TYPE = 0
CLASSIFICATION_TYPE = U
NORAD_CAT_ID   = 82205
ELEMENT_SET_NO = 999
REV_AT_EPOCH   = 61241
BSTAR          = .5237E-3
MEAN_MOTION_DOT = .1784E-4
MEAN_MOTION_DDOT = 0

CCSDS_OMM_VERS = 2.0
CREATION_DATE  = 
ORIGINATOR     = 

OBJECT_NAME    = UNKNOWN
OBJECT_ID      = 
CENTER_NAME    = EARTH
REF_FRAME      = TEME
TIME_SYSTEM    = UTC
MEAN_ELEMENT_THEORY = SGP/SGP4

EPOCH          = 2025-12-29T22:04:45.288768
MEAN_MOTION    = 14.11928216
ECCENTRICITY   = .0069125
INCLINATION    = 99.3201
RA_OF_ASC_NODE = 250.5449
ARG_OF_PERICENTER = 298.6502
MEAN_ANOMALY   = 60.7728

EPHEMERIS_TYPE = 0
CLASSIFICATION_TYPE = U
NORAD_CAT_ID   = 82223
ELEMENT_SET_NO = 999
REV_AT_EPOCH   = 45121
BSTAR          = .21293E-2
MEAN_MOTION_DOT = .3934E-4
MEAN_MOTION_DDOT = 0

CCSDS_OMM_VERS = 2.0
CREATION_DATE  = 
ORIGINATOR     = 

OBJECT_NAME    = UNKNOWN
OBJECT_ID      = 
CENTER_NAME    = EARTH
REF_FRAME      = TEME
TIME_SYSTEM    = UTC
MEAN_ELEMENT_THEORY = SGP/SGP4

EPOCH          = 2026-01-13T00:00:14.287968
MEAN_MOTION    = 14.14034356
ECCENTRICITY   = .0071374
INCLINATION    = 98.9075
RA_OF_ASC_NODE = 283.3550
ARG_OF_PERICENTER = 101.2023
MEAN_ANOMALY   = 278.0081

EPHEMERIS_TYPE = 0
CLASSIFICATION_TYPE = U
NORAD_CAT_ID   = 82250
ELEMENT_SET_NO = 999
REV_AT_EPOCH   = 62105
BSTAR          = .12269E-2
MEAN_MOTION_DOT = .2346E-4
MEAN_MOTION_DDOT = 0

CCSDS_OMM_VERS = 2.0
CREATION_DATE  = 
ORIGINATOR     = 

OBJECT_NAME    = UNKNOWN
OBJECT_ID      = 
CENTER_NAME    = EARTH
REF_FRAME      = TEME
TIME_SYSTEM    = UTC
MEAN_ELEMENT_THEORY = SGP/SGP4

EPOCH          = 2026-01-13T15:45:52.748928
MEAN_MOTION    = 12.33577246
ECCENTRICITY   = .0752087
INCLINATION    = 67.5241
RA_OF_ASC_NODE = 142.9326
ARG_OF_PERICENTER = 85.8010
MEAN_ANOMALY   = 282.8502

EPHEMERIS_TYPE = 0
CLASSIFICATION_TYPE = U
NORAD_CAT_ID   = 82272
ELEMENT_SET_NO = 999
REV_AT_EPOCH   = 27587
BSTAR          = -.35377E-3
MEAN_MOTION_DOT = -.158E-5
MEAN_MOTION_DDOT = 0

CCSDS_OMM_VERS = 2.0
CREATION_DATE  = 
ORIGINATOR     = 

OBJECT_NAME    = UNKNOWN
OBJECT_ID      = 
CENTER_NAME    = EARTH
REF_FRAME      = TEME
TIME_SYSTEM    = UTC
MEAN_ELEMENT_THEORY = SGP/SGP4

EPOCH          = 2026-01-13T16:09:39.492000
MEAN_MOTION    = 13.88697297
ECCENTRICITY   = .0041841
INCLINATION    = 81.9230
RA_OF_ASC_NODE = 335.6080
ARG_OF_PERICENTER = 290.6876
MEAN_ANOMALY   = 248.1070

EPHEMERIS_TYPE = 0
CLASSIFICATION_TYPE = U
NORAD_CAT_ID   = 82303
ELEMENT_SET_NO = 999
REV_AT_EPOCH   = 51885
BSTAR          = .14676E-1
MEAN_MOTION_DOT = .1785E-3
MEAN_MOTION_DDOT = 0

CCSDS_OMM_VERS = 2.0
CREATION_DATE  = 
ORIGINATOR     = 

OBJECT_NAME    = UNKNOWN
OBJECT_ID      = 
CENTER_NAME    = EARTH
REF_FRAME      = TEME
TIME_SYSTEM    = UTC
MEAN_ELEMENT_THEORY = SGP/SGP4

EPOCH          = 2026-01-14T02:37:46.555104
MEAN_MOTION    = 13.54594529
ECCENTRICITY   = .0111191
INCLINATION    = 99.4317
RA_OF_ASC_NODE = 71.4715
ARG_OF_PERICENTER = 225.4044
MEAN_ANOMALY   = 133.7980

EPHEMERIS_TYPE = 0
CLASSIFICATION_TYPE = U
NORAD_CAT_ID   = 82311
ELEMENT_SET_NO = 999
REV_AT_EPOCH   = 55470
BSTAR          = .79684E-3
MEAN_MOTION_DOT = .525E-5
MEAN_MOTION_DDOT = 0

CCSDS_OMM_VERS = 2.0
CREATION_DATE  = 
ORIGINATOR     = 

OBJECT_NAME    = UNKNOWN
OBJECT_ID      = 
CENTER_NAME    = EARTH
REF_FRAME      = TEME
TIME_SYSTEM    = UTC
MEAN_ELEMENT_THEORY = SGP/SGP4

EPOCH          = 2026-01-12T16:48:35.943264
MEAN_MOTION    = 13.15643367
ECCENTRICITY   = .0453818
INCLINATION    = 66.9366
RA_OF_ASC_NODE = 127.6667
ARG_OF_PERICENTER = 145.9782
MEAN_ANOMALY   = 217.1260

EPHEMERIS_TYPE = 0
CLASSIFICATION_TYPE = U
NORAD_CAT_ID   = 82363
ELEMENT_SET_NO = 999
REV_AT_EPOCH   = 29433
BSTAR          = .91674E-3
MEAN_MOTION_DOT = .523E-5
MEAN_MOTION_DDOT = 0

CCSDS_OMM_VERS = 2.0
CREATION_DATE  = 
ORIGINATOR     = 

OBJECT_NAME    = UNKNOWN
OBJECT_ID      = 
CENTER_NAME    = EARTH
REF_FRAME      = TEME
TIME_SYSTEM    = UTC
MEAN_ELEMENT_THEORY = SGP/SGP4

EPOCH          = 2026-01-12T19:17:36.407904
MEAN_MOTION    = 13.98187235
ECCENTRICITY   = .0082761
INCLINATION    = 98.8977
RA_OF_ASC_NODE = 31.9356
ARG_OF_PERICENTER = 252.6700
MEAN_ANOMALY   = 106.5399

EPHEMERIS_TYPE = 0
CLASSIFICATION_TYPE = U
NORAD_CAT_ID   = 82369
ELEMENT_SET_NO = 999
REV_AT_EPOCH   = 56151
BSTAR          = .6417E-4
MEAN_MOTION_DOT = .51E-6
MEAN_MOTION_DDOT = 0

